GALAXY 11 (G-11)        
1 26038U 99071A   25050.49527637 -.00000205  00000+0  00000+0 0  9996
2 26038   5.5133  76.3851 0009755 301.1725  71.6818  0.99028806 92232
INTELSAT 9 (IS-9)       
1 26451U 00043A   25048.89643161 -.00000006  00000+0  00000+0 0  9997
2 26451   9.3216  53.5549 0003108 292.4581 191.0572  1.00273872 89995
INTELSAT 10 (IS-10)     
1 26766U 01019A   25050.18378171  .00000000  00000+0  00000+0 0  9994
2 26766   7.9157  64.1805 0003897 269.1679 308.2854  1.00273539 40777
INTELSAT 901 (IS-901)   
1 26824U 01024A   25049.48655755 -.00000192  00000+0  00000+0 0  9995
2 26824   0.0242 114.2025 0002665 240.4334 301.7087  1.00272624 18139
INTELSAT 902 (IS-902)   
1 26900U 01039A   25050.53272179 -.00000273  00000+0  00000+0 0  9999
2 26900   4.8919  77.6766 0004633 257.5470 316.1605  1.00273003 85859
INTELSAT 904 (IS-904)   
1 27380U 02007A   25050.46530266 -.00000205  00000+0  00000+0 0  9999
2 27380   5.7051  74.9558 0003303 265.7632 306.9278  1.00271657 46923
DIRECTV 5 (TEMPO 1)     
1 27426U 02023A   25050.44941042 -.00000046  00000+0  00000+0 0  9997
2 27426   3.6379  81.3743 0003319 263.4674 216.4446  1.00271636 83289
INTELSAT 905 (IS-905)   
1 27438U 02027A   25042.38725436 -.00000197  00000+0  00000+0 0  9992
2 27438   5.5133  75.6906 0003014 259.5229 281.3728  1.00271028 46448
GALAXY 3C (G-3C)        
1 27445U 02030A   25050.52385999 -.00000142  00000+0  00000+0 0  9995
2 27445   2.4879  84.2757 0002747  49.9296 109.2122  1.00271698 41653
INTELSAT 906 (IS-906)   
1 27513U 02041A   25050.55539756  .00000023  00000+0  00000+0 0  9995
2 27513   4.5713  78.8817 0004062 222.5162 112.4061  1.00270896 82188
GALAXY 23 (G-23)        
1 27854U 03034A   25050.58236594  .00000023  00000+0  00000+0 0  9993
2 27854   1.9472  85.7935 0002894 253.7949 258.9294  1.00270722 83708
GALAXY 13 (HORIZONS-1)  
1 27954U 03044A   25050.55598872  .00000144  00000+0  00000+0 0  9996
2 27954   0.1677  94.3643 0002245 239.3978 226.0990  1.00270957 41737
INTELSAT 10-02          
1 28358U 04022A   25050.49885326  .00000000  00000+0  00000+0 0  9999
2 28358   0.0411 287.8544 0000701  54.3416 346.0773  1.00271840 75716
XM-3 (RHYTHM)           
1 28626U 05008A   25049.17753081 -.00000190  00000+0  00000+0 0  9998
2 28626   0.0822 260.9401 0002054   1.8426 223.1711  1.00275310 37772
DIRECTV 8               
1 28659U 05019A   25050.58364587  .00000013  00000+0  00000+0 0  9995
2 28659   0.0150 111.2741 0003094 233.0222 256.5212  1.00273226 72235
GALAXY 28 (G-28)        
1 28702U 05022A   25050.52498943 -.00000175  00000+0  00000+0 0  9996
2 28702   2.0517  84.9952 0005427 213.4123 311.3013  1.00271627 47141
GALAXY 16 (G-16)        
1 29236U 06023A   25050.52299119 -.00000115  00000+0  00000+0 0  9999
2 29236   0.0574 256.8252 0003011  91.8921 250.2437  1.00272509 68132
DIRECTV 9S              
1 29494U 06043A   25050.23790258 -.00000102  00000+0  00000+0 0  9991
2 29494   1.1696  86.8939 0003228 258.1530 148.8049  1.00272268 46546
GALAXY 17 (G-17)        
1 31307U 07016B   25050.52577135 -.00000195  00000+0  00000+0 0  9999
2 31307   1.7449  86.1475 0004621 228.8637 298.9685  1.00271894 64965
DIRECTV 10              
1 31862U 07032A   25050.52229615 -.00000091  00000+0  00000+0 0  9995
2 31862   0.0102 294.0473 0000420  83.4231 217.4504  1.00271283 40754
INTELSAT 11 (IS-11)     
1 32253U 07044B   25050.46269625 -.00000258  00000+0  00000+0 0  9996
2 32253   2.3041  84.6985 0003223 257.6334 290.8593  1.00270250 63650
HORIZONS-2              
1 32388U 07063B   25050.52803025 -.00000242  00000+0  00000+0 0  9994
2 32388   1.3519  86.7219 0002303 269.2152 270.0513  1.00271343 62976
DIRECTV 11              
1 32729U 08013A   25050.52299119 -.00000114  00000+0  00000+0 0  9990
2 32729   0.0363 323.2570 0000364  15.5535 259.9810  1.00271645 40752
GALAXY 18 (G-18)        
1 32951U 08024A   25050.57988436  .00000036  00000+0  00000+0 0  9993
2 32951   0.0138 167.8465 0003111 184.1843 243.4765  1.00274285 41012
INTELSAT 25 (IS-25)     
1 33153U 08034A   25050.46495514 -.00000213  00000+0  00000+0 0  9995
2 33153   1.4584  86.3757 0003137 255.8861 303.2527  1.00272471 60859
GALAXY 19 (G-19)        
1 33376U 08045A   25048.38238994 -.00000131  00000+0  00000+0 0  9998
2 33376   0.0549 276.5324 0003064  62.0552 209.6482  1.00271911 60047
FM-5                    
1 35493U 09034A   25050.15113971 -.00000188  00000+0  00000+0 0  9996
2 35493   0.0145 208.8710 0005423 202.8937  65.7479  1.00269134 41804
INTELSAT 14 (IS-14)     
1 36097U 09064A   25050.50739361 -.00000262  00000+0  00000+0 0  9999
2 36097   0.0172  96.1653 0002407 244.0619 307.1178  1.00272147 55760
INTELSAT 15 (IS-15)     
1 36106U 09067A   25050.57058721 -.00000173  00000+0  00000+0 0  9995
2 36106   0.0158 222.5267 0002260 120.7625  96.9973  1.00269750 36384
DIRECTV 12              
1 36131U 09075A   25050.52229615 -.00000092  00000+0  00000+0 0  9999
2 36131   0.0110 251.6818 0000534 160.0817 183.2351  1.00271141 41717
INTELSAT 16 (IS-16)     
1 36397U 10006A   25050.52750897 -.00000233  00000+0  00000+0 0  9997
2 36397   0.0067 146.2311 0001850 188.0568 289.1068  1.00270498 54814
XM-5                    
1 37185U 10053A   25050.58745345 -.00000011  00000+0  00000+0 0  9997
2 37185   0.0100 172.3555 0000887 359.7693  73.8982  1.00269801 52641
INTELSAT 17 (IS-17)     
1 37238U 10065B   25050.48432944  .00000009  00000+0  00000+0 0  9992
2 37238   0.0165 197.9319 0002684 137.5887  54.4989  1.00273942 48408
INTELSAT 28 (IS-28)     
1 37392U 11016A   25050.48517429 -.00000054  00000+0  00000+0 0  9993
2 37392   0.5539  89.2967 0004051 240.8484 349.1706  1.00146736 48447
INTELSAT 18 (IS-18)     
1 37834U 11056A   25050.59798475  .00000064  00000+0  00000+0 0  9992
2 37834   0.0186 120.4719 0001765 227.4447 197.1144  1.00271865 48970
INTELSAT 22 (IS-22)     
1 38098U 12011A   25050.57614193 -.00000047  00000+0  00000+0 0  9991
2 38098   0.0307 123.3468 0002116 241.5713  64.3522  1.00270827  2348
INTELSAT 19 (IS-19)     
1 38356U 12030A   25050.58215421 -.00000046  00000+0  00000+0 0  9990
2 38356   0.0226 114.4405 0003416 238.2228 172.6771  1.00269838 45600
INTELSAT 20 (IS-20)     
1 38740U 12043A   25050.17822378 -.00000014  00000+0  00000+0 0  9996
2 38740   0.0211 122.8875 0002374  62.1802  96.9308  1.00272233 45909
INTELSAT 21 (IS-21)     
1 38749U 12045A   25050.51294854 -.00000273  00000+0  00000+0 0  9994
2 38749   0.0365 297.5070 0002075  56.7931 282.0311  1.00269693 45688
INTELSAT 23 (IS-23)     
1 38867U 12057A   25050.46069800 -.00000273  00000+0  00000+0 0  9993
2 38867   0.0284 195.0352 0000853 152.5407 274.8803  1.00258287 45108
FM-6                    
1 39360U 13058A   25050.58624338 -.00000005  00000+0  00000+0 0  9993
2 39360   0.0164 224.0739 0000403  11.9341   8.6237  1.00270331 41500
INTELSAT 30 (IS-30)     
1 40271U 14062A   25050.05383759 -.00000139  00000+0  00000+0 0  9991
2 40271   0.0207  77.4880 0001524 323.1274  32.8845  1.00269517  1937
DIRECTV 14              
1 40333U 14078B   25050.22714285 -.00000116  00000+0  00000+0 0  9993
2 40333   0.0054 315.4979 0002677 201.8658 334.5872  1.00286927 37214
DIRECTV 15              
1 40663U 15026A   25050.52220926 -.00000091  00000+0  00000+0 0  9992
2 40663   0.0229  98.2864 0000266   2.3883 134.1447  1.00269775 35626
SKY MEXICO-1            
1 40664U 15026B   25050.52698769 -.00000223  00000+0  00000+0 0  9994
2 40664   0.0359 310.2316 0002290  44.2479 266.1612  1.00270806 35611
INTELSAT 34 (IS-34)     
1 40874U 15039A   25050.51280965 -.00000274  00000+0  00000+0 0  9991
2 40874   0.0188 120.2752 0000301  47.3646 111.1786  1.00267807 34783
INTELSAT 31 (IS-31)     
1 41581U 16035A   25048.08377419 -.00000143  00000+0  00000+0 0  9999
2 41581   0.0185 115.9698 0001811  65.4730 260.8998  1.00270068 31819
INTELSAT 36 (IS-36)     
1 41747U 16053A   25050.57614193 -.00000013  00000+0  00000+0 0  9999
2 41747   0.0142  75.3489 0001113 258.7636  91.5309  1.00271448 31100
INTELSAT 32E (IS-32E)   
1 41945U 17007B   25050.46260936 -.00000258  00000+0  00000+0 0  9990
2 41945   0.0159 114.1764 0000584 285.2595 233.5499  1.00269739 29381
INTELSAT 35E (IS-35E)   
1 42818U 17041A   25049.78378318 -.00000228  00000+0  00000+0 0  9992
2 42818   0.0144 209.5882 0002749 132.6350  54.3934  1.00270735 27967
INTELSAT 37E (IS-37E)   
1 42950U 17059A   25050.45280116 -.00000129  00000+0  00000+0 0  9992
2 42950   0.0161 119.3463 0002355 209.7840 325.4914  1.00272994 27227
AZERSPACE 2 (IS-38)     
1 43632U 18074A   25050.55157481  .00000147  00000+0  00000+0 0  9996
2 43632   0.0147 113.8029 0001281 234.9628  44.6311  1.00272402 23600
HORIZONS-3E             
1 43633U 18074B   25049.58175230 -.00000019  00000+0  00000+0 0  9999
2 43633   0.0450 299.2923 0001796 353.7649 234.1237  1.00280041 23492
AT&T T-16               
1 44333U 19034A   25050.52264367 -.00000103  00000+0  00000+0 0  9994
2 44333   0.0152 111.1125 0001119  39.9001  85.9568  1.00269438 20795
INTELSAT 39 (IS-39)     
1 44476U 19049B   25050.55496315  .00000045  00000+0  00000+0 0  9995
2 44476   0.0191 119.3022 0000899  12.5800 279.5633  1.00271768 20287
GALAXY 30 (G-30)        
1 46114U 20056C   25050.26416523  .00000048  00000+0  00000+0 0  9990
2 46114   0.0169 113.3973 0001888 229.5759 136.5578  1.00272842 16452
GALAXY 33 (G-33)        
1 54026U 22128A   25050.57073263  .00000090  00000+0  00000+0 0  9994
2 54026   0.0106 147.6834 0001795 193.9059 240.6203  1.00273363  8906
GALAXY 34 (G-34)        
1 54027U 22128B   25050.57481253  .00000070  00000+0  00000+0 0  9995
2 54027   0.0187 125.4236 0001450 210.5185 251.8324  1.00271772  9079
GALAXY 31 (G-31)        
1 54243U 22153A   25050.58120671  .00000024  00000+0  00000+0 0  9997
2 54243   0.0142 196.6104 0001455 145.8327 255.5466  1.00273350  8315
GALAXY 32 (G-32)        
1 54244U 22153B   25048.29836381 -.00000167  00000+0  00000+0 0  9994
2 54244   0.0205 100.9357 0002886 244.5843 178.3844  1.00271895  8306
GALAXY 35 (G-35)        
1 54741U 22170A   25050.52420751 -.00000151  00000+0  00000+0 0  9997
2 54741   0.0112 191.2304 0001950 146.3889 267.6852  1.00271622  8051
GALAXY 36 (G-36)        
1 54742U 22170B   25050.52498943 -.00000174  00000+0  00000+0 0  9991
2 54742   0.0112 128.9983 0002307 282.8911 197.8032  1.00271807  7936
GALAXY 37 (G-37)        
1 57493U 23112A   25050.57607160  .00000059  00000+0  00000+0 0  9993
2 57493   0.0146  85.9082 0002017 254.0823 250.1575  1.00274216  5707
